[{"OBJECT_NAME":"STARLINK-1557","OBJECT_ID":"2020-055H","EPOCH":"2026-03-10T00:00:02.999808","MEAN_MOTION":15.2035016,"ECCENTRICITY":0.0001718,"INCLINATION":53.1122,"RA_OF_ASC_NODE":124.7429,"ARG_OF_PERICENTER":94.4179,"MEAN_ANOMALY":143.9555,"EPHEMERIS_TYPE":0,"CLASSIFICATION_TYPE":"U","NORAD_CAT_ID":46034,"ELEMENT_SET_NO":999,"REV_AT_EPOCH":578,"BSTAR":0.0055116646,"MEAN_MOTION_DOT":0.00123185,"MEAN_MOTION_DDOT":0},{"OBJECT_NAME":"T1DES 1 (DRAGOON 1)","OBJECT_ID":"2025-135Q","EPOCH":"2026-03-09T07:27:07.463520","MEAN_MOTION":15.23819655,"ECCENTRICITY":0.00038782,"INCLINATION":97.4578,"RA_OF_ASC_NODE":184.7906,"ARG_OF_PERICENTER":148.787,"MEAN_ANOMALY":211.3598,"EPHEMERIS_TYPE":0,"CLASSIFICATION_TYPE":"U","NORAD_CAT_ID":64542,"ELEMENT_SET_NO":999,"REV_AT_EPOCH":3970,"BSTAR":0.00060517834,"MEAN_MOTION_DOT":0.00014527,"MEAN_MOTION_DDOT":0}]
